QIANFAN-57              
1 62787U 25016C   25293.94315044  .00000069  00000+0  88479-4 0  9999
2 62787  88.9745 108.6496 0001147  68.4085 291.7188 13.50976031 40073
QIANFAN-58              
1 62788U 25016D   25293.98838219  .00000061  00000+0  74935-4 0  9992
2 62788  88.9714 108.4928 0015141 131.2250 229.0209 13.50975554 40123
QIANFAN-59              
1 62789U 25016E   25293.93899177  .00000069  00000+0  87702-4 0  9992
2 62789  88.9738 108.5590 0015455 134.9323 225.3085 13.50974957 40111
QIANFAN-60              
1 62790U 25016F   25274.04851698  .00000079  00000+0  10311-3 0  9993
2 62790  88.9733 110.6064 0013715 186.6144 173.4828 13.51176660 37413
QIANFAN-61              
1 62791U 25016G   25293.93073874  .00000078  00000+0  10179-3 0  9996
2 62791  88.9786 108.6684 0015997 131.2821 228.9711 13.50975247 40114
QIANFAN-62              
1 62792U 25016H   25293.93500748  .00000075  00000+0  96461-4 0  9998
2 62792  88.9732 108.5649 0017362 131.9675 228.2959 13.50969186 40109
QIANFAN-63              
1 62793U 25016J   25293.95958375  .00000072  00000+0  92332-4 0  9994
2 62793  88.9739 108.5104 0017310 136.8876 223.3635 13.50972160 40140
QIANFAN-64              
1 62794U 25016K   25293.92664968  .00000080  00000+0  10539-3 0  9991
2 62794  88.9726 108.4950 0015405 129.9210 230.3298 13.50973822 40131
